IRIDIUM 166             
1 43570U 18061B   24136.58557776  .00000440  00000+0  15002-3 0  9999
2 43570  86.4004  15.4373 0001974  83.2646 276.8775 14.34218112304091
IRIDIUM 158             
1 43571U 18061C   24136.62361863 -.00000437  00000+0 -16301-3 0  9996
2 43571  86.4003  15.4308 0002150  89.1154 271.0288 14.34223287304067
IRIDIUM 165             
1 43572U 18061D   24136.36992702  .00000041  00000+0  76412-5 0  9990
2 43572  86.4009  15.5685 0002042  88.9481 271.1949 14.34218172304054
IRIDIUM 155             
1 43573U 18061E   24136.75048797  .00000031  00000+0  39897-5 0  9995
2 43573  86.4004  15.3159 0002032  84.6437 275.4990 14.34212482304081
IRIDIUM 154             
1 43574U 18061F   24136.59191895  .00000219  00000+0  71308-4 0  9996
2 43574  86.4006  15.4787 0002431  86.1790 273.9684 14.34217584304108
IRIDIUM 163             
1 43575U 18061G   24135.94496854  .00000765  00000+0  26619-3 0  9998
2 43575  86.4002  15.6882 0002247  83.3733 276.7718 14.34224673303985
IRIDIUM 156             
1 43576U 18061H   24136.61728791  .00000626  00000+0  21662-3 0  9991
2 43576  86.4005  15.4133 0002229  89.5339 270.6112 14.34218616304078
IRIDIUM 164             
1 43577U 18061J   24136.73779643  .00000063  00000+0  15404-4 0  9990
2 43577  86.4005  15.3916 0002317  92.4778 267.6683 14.34216497304136
